KUIPER-00071            
1 64818U 25151C   25273.47521082 -.00006610  00000+0 -83697-3 0  9999
2 64818  51.9003 291.5430 0008031  58.1022 302.0721 14.79988701 11541
KUIPER-00072            
1 64819U 25151D   25273.66672454  .00011461  00000+0  38898-3 0  9992
2 64819  51.8798 279.1161 0007664  59.3705 332.2741 15.30943643  5631
KUIPER-00073            
1 64820U 25151E   25273.44150954 -.00017620  00000+0 -22807-2 0  9993
2 64820  51.8996 291.6894 0013170  82.7396 277.5063 14.80000104 12726
KUIPER-00074            
1 64821U 25151F   25273.66672454 -.00905048  00000+0 -57365-1 0  9998
2 64821  51.8870 280.9607 0013804  88.2872  58.4776 15.11132091  4651
KUIPER-00075            
1 64822U 25151G   25273.29073302  .00029572  00000+0  77959-3 0  9995
2 64822  51.8778 280.4247 0006798  48.4688 311.6881 15.38238337 11682
KUIPER-00076            
1 64823U 25151H   25273.66672454 -.01062650  00000+0 -79184-1 0  9997
2 64823  51.8869 282.3064 0006385  76.7247 214.0063 15.05335266  5470
KUIPER-00077            
1 64824U 25151J   25273.66672454 -.00024687  00000+0 -26294-2 0  9990
2 64824  51.8972 285.8828 0006641  40.2057 304.7785 14.88251087  5793
KUIPER-00078            
1 64825U 25151K   25273.66672454 -.01589868  00000+0 -14654+0 0  9993
2 64825  51.8904 283.9395 0008853 103.6199 111.0514 14.97532338  5649
